start=new Date('2022-07-15T00:00:00.000Z').valueOf();
sats=[{"INCLINATION":"53.0548","PERIAPSIS":"545.835","OBJECT_NAME":"STARLINK-1621","MEAN_MOTION_DOT":"-0.00000755","SEMIMAJOR_AXIS":"6925.398","MEAN_MOTION_DDOT":"0.0000000000000","GP_ID":"208132216","RCS_SIZE":"LARGE","COUNTRY_CODE":"US","REF_FRAME":"TEME","OBJECT_TYPE":"PAYLOAD","TLE_LINE1":"1 46127U 20057L   22195.61332158 -.00000755  00000-0 -31764-4 0  9996","EPHEMERIS_TYPE":"0","CENTER_NAME":"EARTH","EPOCH":"2022-07-14T14:43:10.984512","OBJECT_ID":"2020-057L","APOAPSIS":"548.691","REV_AT_EPOCH":"10526","ELEMENT_SET_NO":"999","MEAN_MOTION":"15.06383824","TLE_LINE2":"2 46127  53.0548 165.5164 0002062  66.1902 293.9303 15.06383824105262","CLASSIFICATION_TYPE":"U","LAUNCH_DATE":"2020-08-18","TIME_SYSTEM":"UTC","BSTAR":"-0.00003176400000","ECCENTRICITY":"0.00020620","RA_OF_ASC_NODE":"165.5164","FILE":"3513976","ARG_OF_PERICENTER":"66.1902","NORAD_CAT_ID":"46127","SITE":"AFETR","MEAN_ELEMENT_THEORY":"SGP4","PERIOD":"95.593","MEAN_ANOMALY":"293.9303","DECAY_DATE":null},{"FILE":"3513976","ARG_OF_PERICENTER":"73.5342","SITE":"AFETR","MEAN_ELEMENT_THEORY":"SGP4","NORAD_CAT_ID":"46128","PERIOD":"95.593","MEAN_ANOMALY":"286.5827","DECAY_DATE":null,"LAUNCH_DATE":"2020-08-18","TIME_SYSTEM":"UTC","BSTAR":"0.00003676800000","ECCENTRICITY":"0.00016410","RA_OF_ASC_NODE":"144.4968","REF_FRAME":"TEME","OBJECT_TYPE":"PAYLOAD","EPHEMERIS_TYPE":"0","TLE_LINE1":"1 46128U 20057M   22195.83999683  .00000266  00000-0  36768-4 0  9997","CENTER_NAME":"EARTH","EPOCH":"2022-07-14T20:09:35.726112","OBJECT_ID":"2020-057M","APOAPSIS":"548.373","REV_AT_EPOCH":"10558","ELEMENT_SET_NO":"999","MEAN_MOTION":"15.06392596","TLE_LINE2":"2 46128  53.0521 144.4968 0001641  73.5342 286.5827 15.06392596105584","CLASSIFICATION_TYPE":"U","PERIAPSIS":"546.100","INCLINATION":"53.0521","OBJECT_NAME":"STARLINK-1622","MEAN_MOTION_DOT":"0.00000266","SEMIMAJOR_AXIS":"6925.371","MEAN_MOTION_DDOT":"0.0000000000000","GP_ID":"208132965","RCS_SIZE":"LARGE","COUNTRY_CODE":"US"},{"TLE_LINE2":"2 46129  53.0531 146.7138 0001635  83.8659 276.2516 15.06395507105517","CLASSIFICATION_TYPE":"U","MEAN_MOTION":"15.06395507","ELEMENT_SET_NO":"999","REV_AT_EPOCH":"10551","APOAPSIS":"548.360","OBJECT_ID":"2020-057N","EPOCH":"2022-07-14T08:23:39.907680","TLE_LINE1":"1 46129U 20057N   22195.34976745 -.00002268  00000-0 -13341-3 0  9995","CENTER_NAME":"EARTH","EPHEMERIS_TYPE":"0","OBJECT_TYPE":"PAYLOAD","REF_FRAME":"TEME","COUNTRY_CODE":"US","RCS_SIZE":"LARGE","GP_ID":"208102739","MEAN_MOTION_DDOT":"0.0000000000000","SEMIMAJOR_AXIS":"6925.362","MEAN_MOTION_DOT":"-0.00002268","PERIAPSIS":"546.095","OBJECT_NAME":"STARLINK-1623","INCLINATION":"53.0531","DECAY_DATE":null,"MEAN_ANOMALY":"276.2516","PERIOD":"95.592","MEAN_ELEMENT_THEORY":"SGP4","SITE":"AFETR","NORAD_CAT_ID":"46129","ARG_OF_PERICENTER":"83.8659","FILE":"3513725","ECCENTRICITY":"0.00016350","RA_OF_ASC_NODE":"146.7138","BSTAR":"-0.00013341000000","TIME_SYSTEM":"UTC","LAUNCH_DATE":"2020-08-18"},{"APOAPSIS":"548.644","ELEMENT_SET_NO":"999","MEAN_MOTION":"15.06391146","CLASSIFICATION_TYPE":"U","TLE_LINE2":"2 46130  53.0553 145.6542 0002026  60.2449 299.8741 15.06391146106798","REV_AT_EPOCH":"10679","OBJECT_TYPE":"PAYLOAD","CENTER_NAME":"EARTH","TLE_LINE1":"1 46130U 20057P   22195.58198372  .00000013  00000-0  19758-4 0  9998","EPHEMERIS_TYPE":"0","REF_FRAME":"TEME","OBJECT_ID":"2020-057P","EPOCH":"2022-07-14T13:58:03.393408","MEAN_MOTION_DDOT":"0.0000000000000","RCS_SIZE":"LARGE","COUNTRY_CODE":"US","GP_ID":"208102990","MEAN_MOTION_DOT":"0.00000013","PERIAPSIS":"545.838","INCLINATION":"53.0553","OBJECT_NAME":"STARLINK-1624","SEMIMAJOR_AXIS":"6925.376","MEAN_ANOMALY":"299.8741","DECAY_DATE":null,"ARG_OF_PERICENTER":"60.2449","FILE":"3513725","SITE":"AFETR","NORAD_CAT_ID":"46130","MEAN_ELEMENT_THEORY":"SGP4","PERIOD":"95.593","RA_OF_ASC_NODE":"145.6542","ECCENTRICITY":"0.00020260","TIME_SYSTEM":"UTC","LAUNCH_DATE":"2020-08-18","BSTAR":"0.00001975800000"},{"SEMIMAJOR_AXIS":"6925.240","MEAN_MOTION_DOT":"-0.00009559","PERIAPSIS":"546.052","OBJECT_NAME":"STARLINK-1625","INCLINATION":"53.0530","COUNTRY_CODE":"US","RCS_SIZE":"LARGE","GP_ID":"208101741","MEAN_MOTION_DDOT":"0.0000000000000","OBJECT_ID":"2020-057Q","EPOCH":"2022-07-14T07:54:27.786528","OBJECT_TYPE":"PAYLOAD","TLE_LINE1":"1 46131U 20057Q   22195.32948827 -.00009559  00000-0 -62306-3 0  9991","EPHEMERIS_TYPE":"0","CENTER_NAME":"EARTH","REF_FRAME":"TEME","ELEMENT_SET_NO":"999","MEAN_MOTION":"15.06435426","CLASSIFICATION_TYPE":"U","TLE_LINE2":"2 46131  53.0530 166.7914 0001520  86.0645 274.0518 15.06435426106486","REV_AT_EPOCH":"10648","APOAPSIS":"548.158","BSTAR":"-0.00062306000000","TIME_SYSTEM":"UTC","LAUNCH_DATE":"2020-08-18","ECCENTRICITY":"0.00015200","RA_OF_ASC_NODE":"166.7914","SITE":"AFETR","NORAD_CAT_ID":"46131","MEAN_ELEMENT_THEORY":"SGP4","PERIOD":"95.590","ARG_OF_PERICENTER":"86.0645","FILE":"3513725","DECAY_DATE":null,"MEAN_ANOMALY":"274.0518"},{"ECCENTRICITY":"0.00018230","RA_OF_ASC_NODE":"185.1440","TIME_SYSTEM":"UTC","LAUNCH_DATE":"2020-08-18","BSTAR":"0.00001349900000","MEAN_ANOMALY":"296.4147","DECAY_DATE":null,"ARG_OF_PERICENTER":"63.7029","FILE":"3513780","SITE":"AFETR","MEAN_ELEMENT_THEORY":"SGP4","NORAD_CAT_ID":"46132","PERIOD":"95.593","MEAN_MOTION_DDOT":"0.0000000000000","COUNTRY_CODE":"US","RCS_SIZE":"LARGE","GP_ID":"208108403","MEAN_MOTION_DOT":"-0.00000081","PERIAPSIS":"545.975","INCLINATION":"53.0544","OBJECT_NAME":"STARLINK-1630","SEMIMAJOR_AXIS":"6925.373","APOAPSIS":"548.500","ELEMENT_SET_NO":"999","MEAN_MOTION":"15.06392060","TLE_LINE2":"2 46132  53.0544 185.1440 0001823  63.7029 296.4147 15.06392060105666","CLASSIFICATION_TYPE":"U","REV_AT_EPOCH":"10566","OBJECT_TYPE":"PAYLOAD","TLE_LINE1":"1 46132U 20057R   22195.69994528 -.00000081  00000-0  13499-4 0  9991","CENTER_NAME":"EARTH","EPHEMERIS_TYPE":"0","REF_FRAME":"TEME","OBJECT_ID":"2020-057R","EPOCH":"2022-07-14T16:47:55.272192"},{"ECCENTRICITY":"0.00018220","RA_OF_ASC_NODE":"145.7283","TIME_SYSTEM":"UTC","LAUNCH_DATE":"2020-08-18","BSTAR":"-0.00012602000000","MEAN_ANOMALY":"283.9147","DECAY_DATE":null,"ARG_OF_PERICENTER":"76.2045","FILE":"3513784","NORAD_CAT_ID":"46133","SITE":"AFETR","MEAN_ELEMENT_THEORY":"SGP4","PERIOD":"95.593","MEAN_MOTION_DDOT":"0.0000000000000","COUNTRY_CODE":"US","RCS_SIZE":"LARGE","GP_ID":"208108207","MEAN_MOTION_DOT":"-0.00002157","PERIAPSIS":"546.008","OBJECT_NAME":"STARLINK-1637","INCLINATION":"53.0561","SEMIMAJOR_AXIS":"6925.405","APOAPSIS":"548.532","MEAN_MOTION":"15.06381527","ELEMENT_SET_NO":"999","CLASSIFICATION_TYPE":"U","TLE_LINE2":"2 46133  53.0561 145.7283 0001822  76.2045 283.9147 15.06381527106207","REV_AT_EPOCH":"10620","OBJECT_TYPE":"PAYLOAD","EPHEMERIS_TYPE":"0","TLE_LINE1":"1 46133U 20057S   22195.56725125 -.00002157  00000-0 -12602-3 0  9994","CENTER_NAME":"EARTH","REF_FRAME":"TEME","OBJECT_ID":"2020-057S","EPOCH":"2022-07-14T13:36:50.508000"},{"SEMIMAJOR_AXIS":"6925.377","INCLINATION":"53.0566","PERIAPSIS":"546.126","OBJECT_NAME":"STARLINK-1638","MEAN_MOTION_DOT":"-0.00001564","GP_ID":"208102491","RCS_SIZE":"LARGE","COUNTRY_CODE":"US","MEAN_MOTION_DDOT":"0.0000000000000","EPOCH":"2022-07-14T13:40:46.594272","OBJECT_ID":"2020-057T","REF_FRAME":"TEME","TLE_LINE1":"1 46134U 20057T   22195.56998373 -.00001564  00000-0 -86124-4 0  9994","CENTER_NAME":"EARTH","EPHEMERIS_TYPE":"0","OBJECT_TYPE":"PAYLOAD","REV_AT_EPOCH":"10554","CLASSIFICATION_TYPE":"U","TLE_LINE2":"2 46134  53.0566 145.7041 0001611  75.2284 284.8883 15.06390693105542","ELEMENT_SET_NO":"999","MEAN_MOTION":"15.06390693","APOAPSIS":"548.358","BSTAR":"-0.00008612400000","LAUNCH_DATE":"2020-08-18","TIME_SYSTEM":"UTC","RA_OF_ASC_NODE":"145.7041","ECCENTRICITY":"0.00016110","PERIOD":"95.593","NORAD_CAT_ID":"46134","SITE":"AFETR","MEAN_ELEMENT_THEORY":"SGP4","FILE":"3513725","ARG_OF_PERICENTER":"75.2284","DECAY_DATE":null,"MEAN_ANOMALY":"284.8883"},{"REF_FRAME":"TEME","CENTER_NAME":"EARTH","TLE_LINE1":"1 46135U 20057U   22195.58567052 -.00002137  00000-0 -12458-3 0  9998","EPHEMERIS_TYPE":"0","OBJECT_TYPE":"PAYLOAD","EPOCH":"2022-07-14T14:03:21.932928","OBJECT_ID":"2020-057U","APOAPSIS":"548.351","REV_AT_EPOCH":"10554","CLASSIFICATION_TYPE":"U","TLE_LINE2":"2 46135  53.0548 145.6436 0001644  72.3368 287.7801 15.06400276105548","ELEMENT_SET_NO":"999","MEAN_MOTION":"15.06400276","PERIAPSIS":"546.074","INCLINATION":"53.0548","OBJECT_NAME":"STARLINK-1639","MEAN_MOTION_DOT":"-0.00002137","SEMIMAJOR_AXIS":"6925.348","MEAN_MOTION_DDOT":"0.0000000000000","GP_ID":"208101242","COUNTRY_CODE":"US","RCS_SIZE":"LARGE","FILE":"3513725","ARG_OF_PERICENTER":"72.3368","PERIOD":"95.592","NORAD_CAT_ID":"46135","SITE":"AFETR","MEAN_ELEMENT_THEORY":"SGP4","MEAN_ANOMALY":"287.7801","DECAY_DATE":null,"LAUNCH_DATE":"2020-08-18","TIME_SYSTEM":"UTC","BSTAR":"-0.00012458000000","RA_OF_ASC_NODE":"145.6436","ECCENTRICITY":"0.00016440"},{"RCS_SIZE":"LARGE","COUNTRY_CODE":"US","GP_ID":"208132966","MEAN_MOTION_DDOT":"0.0000000000000","SEMIMAJOR_AXIS":"6925.362","MEAN_MOTION_DOT":"-0.00002086","OBJECT_NAME":"STARLINK-1643","PERIAPSIS":"546.121","INCLINATION":"53.0535","ELEMENT_SET_NO":"999","MEAN_MOTION":"15.06395591","TLE_LINE2":"2 46136  53.0535 174.8147 0001597  68.6148 291.5011 15.06395591105155","CLASSIFICATION_TYPE":"U","REV_AT_EPOCH":"10515","APOAPSIS":"548.333","OBJECT_ID":"2020-057V","EPOCH":"2022-07-14T18:23:24.803520","OBJECT_TYPE":"PAYLOAD","EPHEMERIS_TYPE":"0","TLE_LINE1":"1 46136U 20057V   22195.76625930 -.00002086  00000-0 -12120-3 0  9998","CENTER_NAME":"EARTH","REF_FRAME":"TEME","ECCENTRICITY":"0.00015970","RA_OF_ASC_NODE":"174.8147","BSTAR":"-0.00012120000000","TIME_SYSTEM":"UTC","LAUNCH_DATE":"2020-08-18","DECAY_DATE":null,"MEAN_ANOMALY":"291.5011","NORAD_CAT_ID":"46136","SITE":"AFETR","MEAN_ELEMENT_THEORY":"SGP4","PERIOD":"95.592","FILE":"3513976","ARG_OF_PERICENTER":"68.6148"}];
